[{"OBJECT_NAME":"OBJECT Y","OBJECT_ID":"2023-085Y","EPOCH":"2026-03-09T22:38:54.992256","MEAN_MOTION":15.32500153,"ECCENTRICITY":0.00063298,"INCLINATION":97.4849,"RA_OF_ASC_NODE":180.8653,"ARG_OF_PERICENTER":67.4431,"MEAN_ANOMALY":292.748,"EPHEMERIS_TYPE":0,"CLASSIFICATION_TYPE":"U","NORAD_CAT_ID":57026,"ELEMENT_SET_NO":999,"REV_AT_EPOCH":15160,"BSTAR":0.00065512761,"MEAN_MOTION_DOT":0.00020524,"MEAN_MOTION_DDOT":0},{"OBJECT_NAME":"STARLINK-31228","OBJECT_ID":"2024-017S","EPOCH":"2026-03-09T16:21:34.540992","MEAN_MOTION":15.30186757,"ECCENTRICITY":0.00011148,"INCLINATION":53.1605,"RA_OF_ASC_NODE":204.4502,"ARG_OF_PERICENTER":91.7379,"MEAN_ANOMALY":268.3749,"EPHEMERIS_TYPE":0,"CLASSIFICATION_TYPE":"U","NORAD_CAT_ID":58842,"ELEMENT_SET_NO":999,"REV_AT_EPOCH":12005,"BSTAR":1.6503119e-5,"MEAN_MOTION_DOT":1.3e-6,"MEAN_MOTION_DDOT":0}]
